*******************************************************************************
Ephemeris / WWW_USER Mon Jul 15 19:26:03 2024 Pasadena, USA      / Horizons    
*******************************************************************************
Target body name: (2018 RA1)                      {source: JPL#6}
Center body name: Earth (399)                     {source: DE441}
Center-site name: Gemini South Obs., Cerro Pachon
*******************************************************************************
Start time      : A.D. 2019-Jan-09 23:58:00.0000 UT      
Stop  time      : A.D. 2019-Jan-10 09:42:00.0000 UT      
Step-size       : 1 minutes
*******************************************************************************
Target pole/equ : undefined
Target radii    : undefined                                                    
Center geodetic : 289.2634, -30.2406227, 2.71233  {E-lon(deg),Lat(deg),Alt(km)}
Center cylindric: 289.2634,5517.21435,-3194.81213 {E-lon(deg),Dxy(km),Dz(km)}
Center pole/equ : ITRF93                          {East-longitude positive}
Center radii    : 6378.137, 6378.137, 6356.752 km {Equator_a, b, pole_c}       
Target primary  : Sun
Vis. interferer : MOON (R_eq= 1737.400) km        {source: DE441}
Rel. light bend : Sun                             {source: DE441}
Rel. lght bnd GM: 1.3271E+11 km^3/s^2                                          
Small-body perts: Yes                             {source: SB441-N16}
Atmos refraction: NO (AIRLESS)
RA format       : HMS
Time format     : CAL 
Calendar mode   : Mixed Julian/Gregorian
RTS-only print  : NO       
EOP file        : eop.240715.p241008                                           
EOP coverage    : DATA-BASED 1962-JAN-20 TO 2024-JUL-15. PREDICTS-> 2024-OCT-07
Units conversion: 1 au= 149597870.700 km, c= 299792.458 km/s, 1 day= 86400.0 s 
Table cut-offs 1: Elevation (-90.0deg=NO ),Airmass (>38.000=NO), Daylight (YES)
Table cut-offs 2: Solar elongation (  0.0,180.0=NO ),Local Hour Angle( 0.0=NO )
Table cut-offs 3: RA/DEC angular rate (     0.0=NO )                           
*******************************************************************************
Initial IAU76/J2000 heliocentric ecliptic osculating elements (au, days, deg.):
  EPOCH=  2458369.5 ! 2018-Sep-08.00 (TDB)         Residual RMS= .21275        
   EC= .3232115344739424   QR= .7703453101153647   TP= 2458436.6763547547      
   OM= 166.2054176892707   W=  269.7217787981747   IN= 8.763099478405824       
  Equivalent ICRF heliocentric cartesian coordinates (au, au/d):
   X= 9.899686155013647E-01  Y=-2.468208982240139E-01  Z=-1.030323866474361E-01
  VX=-9.411283005844916E-04 VY= 1.717513364149167E-02 VZ= 4.613440841260365E-03
Asteroid physical parameters (km, seconds, rotational period in hours):        
   GM= n.a.                RAD= n.a.               ROTPER= n.a.                
   H= 26.4                 G= .150                 B-V= n.a.                   
                           ALBEDO= n.a.            STYP= n.a.                  
*******************************************************************************
 Date__(UT)__HR:MN     R.A._________(ICRF)_________DEC
******************************************************
$$SOE
 2019-Jan-10 04:04     14 42 35.760549 -17 39 23.53637
 2019-Jan-10 04:05     14 42 35.882064 -17 39 23.59541
 2019-Jan-10 04:06     14 42 36.003568 -17 39 23.65446
 2019-Jan-10 04:07     14 42 36.125060 -17 39 23.71355
 2019-Jan-10 04:08     14 42 36.246540 -17 39 23.77265
 2019-Jan-10 04:09     14 42 36.368009 -17 39 23.83178
 2019-Jan-10 04:10     14 42 36.489466 -17 39 23.89094
 2019-Jan-10 04:11     14 42 36.610912 -17 39 23.95011
 2019-Jan-10 04:12     14 42 36.732346 -17 39 24.00931
 2019-Jan-10 04:13     14 42 36.853768 -17 39 24.06853
 2019-Jan-10 04:14     14 42 36.975178 -17 39 24.12778
 2019-Jan-10 04:15     14 42 37.096576 -17 39 24.18705
 2019-Jan-10 04:16     14 42 37.217963 -17 39 24.24634
 2019-Jan-10 04:17     14 42 37.339338 -17 39 24.30565
 2019-Jan-10 04:18     14 42 37.460701 -17 39 24.36498
 2019-Jan-10 04:19     14 42 37.582052 -17 39 24.42434
 2019-Jan-10 04:20     14 42 37.703391 -17 39 24.48371
 2019-Jan-10 04:21     14 42 37.824718 -17 39 24.54311
 2019-Jan-10 04:22     14 42 37.946033 -17 39 24.60253
 2019-Jan-10 04:23     14 42 38.067337 -17 39 24.66197
 2019-Jan-10 04:24     14 42 38.188628 -17 39 24.72143
 2019-Jan-10 04:25     14 42 38.309907 -17 39 24.78091
 2019-Jan-10 04:26     14 42 38.431174 -17 39 24.84041
 2019-Jan-10 04:27     14 42 38.552429 -17 39 24.89993
 2019-Jan-10 04:28     14 42 38.673672 -17 39 24.95947
 2019-Jan-10 04:29     14 42 38.794902 -17 39 25.01903
 2019-Jan-10 04:30     14 42 38.916121 -17 39 25.07860
 2019-Jan-10 04:31     14 42 39.037327 -17 39 25.13820
 2019-Jan-10 04:32     14 42 39.158521 -17 39 25.19781
 2019-Jan-10 04:33     14 42 39.279703 -17 39 25.25745
 2019-Jan-10 04:34     14 42 39.400872 -17 39 25.31710
 2019-Jan-10 04:35     14 42 39.522029 -17 39 25.37677
 2019-Jan-10 04:36     14 42 39.643174 -17 39 25.43646
 2019-Jan-10 04:37     14 42 39.764307 -17 39 25.49616
 2019-Jan-10 04:38     14 42 39.885427 -17 39 25.55588
 2019-Jan-10 04:39     14 42 40.006535 -17 39 25.61562
 2019-Jan-10 04:40     14 42 40.127630 -17 39 25.67538
 2019-Jan-10 04:41     14 42 40.248713 -17 39 25.73515
 2019-Jan-10 04:42     14 42 40.369784 -17 39 25.79494
 2019-Jan-10 04:43     14 42 40.490842 -17 39 25.85475
 2019-Jan-10 04:44     14 42 40.611888 -17 39 25.91457
 2019-Jan-10 04:45     14 42 40.732921 -17 39 25.97441
 2019-Jan-10 04:46     14 42 40.853941 -17 39 26.03426
 2019-Jan-10 04:47     14 42 40.974949 -17 39 26.09413
 2019-Jan-10 04:48     14 42 41.095945 -17 39 26.15401
 2019-Jan-10 04:49     14 42 41.216928 -17 39 26.21391
 2019-Jan-10 04:50     14 42 41.337898 -17 39 26.27382
 2019-Jan-10 04:51     14 42 41.458855 -17 39 26.33374
 2019-Jan-10 04:52     14 42 41.579800 -17 39 26.39369
 2019-Jan-10 04:53     14 42 41.700733 -17 39 26.45364
 2019-Jan-10 04:54     14 42 41.821652 -17 39 26.51361
 2019-Jan-10 04:55     14 42 41.942559 -17 39 26.57359
 2019-Jan-10 04:56     14 42 42.063453 -17 39 26.63358
 2019-Jan-10 04:57     14 42 42.184335 -17 39 26.69359
 2019-Jan-10 04:58     14 42 42.305204 -17 39 26.75361
 2019-Jan-10 04:59     14 42 42.426060 -17 39 26.81364
 2019-Jan-10 05:00     14 42 42.546903 -17 39 26.87369
 2019-Jan-10 05:01     14 42 42.667733 -17 39 26.93375
 2019-Jan-10 05:02     14 42 42.788551 -17 39 26.99381
 2019-Jan-10 05:03     14 42 42.909355 -17 39 27.05389
 2019-Jan-10 05:04     14 42 43.030147 -17 39 27.11399
 2019-Jan-10 05:05     14 42 43.150926 -17 39 27.17409
 2019-Jan-10 05:06     14 42 43.271692 -17 39 27.23420
 2019-Jan-10 05:07     14 42 43.392445 -17 39 27.29432
 2019-Jan-10 05:08     14 42 43.513186 -17 39 27.35446
 2019-Jan-10 05:09     14 42 43.633913 -17 39 27.41460
 2019-Jan-10 05:10     14 42 43.754627 -17 39 27.47476
 2019-Jan-10 05:11     14 42 43.875329 -17 39 27.53492
 2019-Jan-10 05:12     14 42 43.996017 -17 39 27.59509
 2019-Jan-10 05:13     14 42 44.116693 -17 39 27.65527
 2019-Jan-10 05:14     14 42 44.237355 -17 39 27.71547
 2019-Jan-10 05:15  r  14 42 44.358004 -17 39 27.77567
 2019-Jan-10 05:16     14 42 44.478641 -17 39 27.83587
 2019-Jan-10 05:17     14 42 44.599264 -17 39 27.89609
 2019-Jan-10 05:18     14 42 44.719875 -17 39 27.95631
 2019-Jan-10 05:19     14 42 44.840472 -17 39 28.01655
 2019-Jan-10 05:20     14 42 44.961056 -17 39 28.07678
 2019-Jan-10 05:21     14 42 45.081627 -17 39 28.13703
 2019-Jan-10 05:22     14 42 45.202185 -17 39 28.19728
 2019-Jan-10 05:23     14 42 45.322730 -17 39 28.25754
 2019-Jan-10 05:24     14 42 45.443262 -17 39 28.31781
 2019-Jan-10 05:25     14 42 45.563780 -17 39 28.37808
 2019-Jan-10 05:26     14 42 45.684286 -17 39 28.43836
 2019-Jan-10 05:27     14 42 45.804778 -17 39 28.49865
 2019-Jan-10 05:28     14 42 45.925257 -17 39 28.55894
 2019-Jan-10 05:29     14 42 46.045723 -17 39 28.61923
 2019-Jan-10 05:30     14 42 46.166176 -17 39 28.67953
 2019-Jan-10 05:31     14 42 46.286615 -17 39 28.73984
 2019-Jan-10 05:32     14 42 46.407042 -17 39 28.80015
 2019-Jan-10 05:33     14 42 46.527455 -17 39 28.86046
 2019-Jan-10 05:34     14 42 46.647855 -17 39 28.92078
 2019-Jan-10 05:35     14 42 46.768241 -17 39 28.98110
 2019-Jan-10 05:36     14 42 46.888615 -17 39 29.04143
 2019-Jan-10 05:37     14 42 47.008975 -17 39 29.10176
 2019-Jan-10 05:38     14 42 47.129322 -17 39 29.16209
 2019-Jan-10 05:39     14 42 47.249656 -17 39 29.22242
 2019-Jan-10 05:40     14 42 47.369976 -17 39 29.28276
 2019-Jan-10 05:41     14 42 47.490283 -17 39 29.34310
 2019-Jan-10 05:42     14 42 47.610577 -17 39 29.40344
 2019-Jan-10 05:43     14 42 47.730857 -17 39 29.46379
 2019-Jan-10 05:44     14 42 47.851124 -17 39 29.52413
 2019-Jan-10 05:45     14 42 47.971378 -17 39 29.58448
 2019-Jan-10 05:46     14 42 48.091619 -17 39 29.64483
 2019-Jan-10 05:47     14 42 48.211846 -17 39 29.70518
 2019-Jan-10 05:48     14 42 48.332060 -17 39 29.76553
 2019-Jan-10 05:49     14 42 48.452261 -17 39 29.82588
 2019-Jan-10 05:50     14 42 48.572448 -17 39 29.88623
 2019-Jan-10 05:51     14 42 48.692622 -17 39 29.94657
 2019-Jan-10 05:52     14 42 48.812783 -17 39 30.00692
 2019-Jan-10 05:53     14 42 48.932930 -17 39 30.06727
 2019-Jan-10 05:54     14 42 49.053064 -17 39 30.12762
 2019-Jan-10 05:55     14 42 49.173184 -17 39 30.18797
 2019-Jan-10 05:56     14 42 49.293292 -17 39 30.24831
 2019-Jan-10 05:57     14 42 49.413385 -17 39 30.30866
 2019-Jan-10 05:58     14 42 49.533466 -17 39 30.36900
 2019-Jan-10 05:59     14 42 49.653533 -17 39 30.42934
 2019-Jan-10 06:00     14 42 49.773587 -17 39 30.48968
 2019-Jan-10 06:01     14 42 49.893627 -17 39 30.55001
 2019-Jan-10 06:02     14 42 50.013654 -17 39 30.61035
 2019-Jan-10 06:03     14 42 50.133668 -17 39 30.67068
 2019-Jan-10 06:04     14 42 50.253668 -17 39 30.73100
 2019-Jan-10 06:05     14 42 50.373655 -17 39 30.79132
 2019-Jan-10 06:06     14 42 50.493628 -17 39 30.85164
